{"fetched_at":"2026-03-29T16:36:15Z","count":15609,"tles":[{"name":"STARLINK-35167","line1":"1 65736U 25216C   26087.75708025  .00041665  00000+0  14095-2 0  9992","line2":"2 65736  53.1596 244.2739 0001138  73.1340 286.9785 15.30233606 29465","category":"Starlink"}]}