{
  "norad_id": 65736,
  "name": "STARLINK-35167",
  "history": [
    {
      "epoch": "2026-03-28T18:10:11.733600",
      "apogee_km": 475.8946298440642,
      "perigee_km": 474.3348297503617,
      "latitude_deg": 28.517965025910012,
      "longitude_deg": 106.27970399986953,
      "semi_major_axis_km": 6853.251729797213,
      "eccentricity": 0.0001138,
      "inclination_deg": 53.1596,
      "raan_deg": 244.2739,
      "arg_perigee_deg": 73.134,
      "mean_anomaly_deg": 286.9785,
      "mean_motion_rev_day": 15.30233606
    }
  ]
}